[{"OBJECT_NAME":"ICEYE-X21","OBJECT_ID":"2023-001AS","EPOCH":"2026-03-09T21:59:09.131424","MEAN_MOTION":15.76746514,"ECCENTRICITY":0.00038894,"INCLINATION":97.3381,"RA_OF_ASC_NODE":147.8147,"ARG_OF_PERICENTER":74.7456,"MEAN_ANOMALY":285.424,"EPHEMERIS_TYPE":0,"CLASSIFICATION_TYPE":"U","NORAD_CAT_ID":55049,"ELEMENT_SET_NO":999,"REV_AT_EPOCH":17785,"BSTAR":0.00056259315,"MEAN_MOTION_DOT":0.00090659,"MEAN_MOTION_DDOT":0},{"OBJECT_NAME":"STARLINK-36342","OBJECT_ID":"2026-022B","EPOCH":"2026-03-09T15:53:15.561024","MEAN_MOTION":15.75161558,"ECCENTRICITY":0.00016637,"INCLINATION":97.2837,"RA_OF_ASC_NODE":102.6239,"ARG_OF_PERICENTER":76.2415,"MEAN_ANOMALY":283.9035,"EPHEMERIS_TYPE":0,"CLASSIFICATION_TYPE":"U","NORAD_CAT_ID":67649,"ELEMENT_SET_NO":999,"REV_AT_EPOCH":554,"BSTAR":0.0020830172,"MEAN_MOTION_DOT":0.00322186,"MEAN_MOTION_DDOT":0}]
